STARLINK-3953           
1 52559U 22051AC  26068.46447361  .00001085  00000+0  86279-4 0  9992
2 52559  53.2178 120.3144 0001201  83.1983 276.9145 15.08832064211549
UMBRA-07                
1 58297U 23174AT  26068.71829358  .00012685  00000+0  84614-3 0  9990
2 58297  97.3902 128.3323 0004131  75.5473 284.6213 15.07174057128425
